{"type": "FeatureCollection", "features": [ {"type": "Feature", "properties": {"norad_id": 62339, "name": "GPS BIII-7  (PRN 01)", "group": "gps-ops", "lat": -54.1741726847608, "lon": -94.59817406720198, "alt_km": 20174.950636484657, "timestamp": "2025-12-03T06:58:43.496262+00:00", "meta": {"OBJECT_NAME": "GPS BIII-7  (PRN 01)", "OBJECT_ID": "2024-242A", "EPOCH": "2025-12-02T03:41:48.732000", "MEAN_MOTION": 2.00567227, "ECCENTRICITY": 0.0011644, "INCLINATION": 54.9268, "RA_OF_ASC_NODE": 342.1698, "ARG_OF_PERICENTER": 343.3913, "MEAN_ANOMALY": 193.6606, "EPHEMERIS_TYPE": 0, "CLASSIFICATION_TYPE": "U", "NORAD_CAT_ID": 62339, "ELEMENT_SET_NO": 999, "REV_AT_EPOCH": 730, "BSTAR": 0, "MEAN_MOTION_DOT": -6.2e-07, "MEAN_MOTION_DDOT": 0}, "tle": {"line1": "1 62339U 24242A   25336.15403625 -.00000062  00000+0  00000+0 0  9999", "line2": "2 62339  54.9268 342.1698 0011644 343.3913 193.6606  2.00567227  7306"}}, "geometry": {"type": "Point", "coordinates": [-94.59817406720198, -54.1741726847608]}}, {"type": "Feature", "properties": {"norad_id": 64202, "name": "GPS BIII-8  (PRN 21)", "group": "gps-ops", "lat": 51.41100385098776, "lon": 158.13442561424267, "alt_km": 20188.873676182116, "timestamp": "2025-12-03T06:58:43.496275+00:00", "meta": {"OBJECT_NAME": "GPS BIII-8  (PRN 21)", "OBJECT_ID": "2025-116A", "EPOCH": "2025-11-27T15:37:05.200896", "MEAN_MOTION": 2.0055919, "ECCENTRICITY": 0.00048631, "INCLINATION": 55.0944, "RA_OF_ASC_NODE": 39.2516, "ARG_OF_PERICENTER": 304.421, "MEAN_ANOMALY": 50.9436, "EPHEMERIS_TYPE": 0, "CLASSIFICATION_TYPE": "U", "NORAD_CAT_ID": 64202, "ELEMENT_SET_NO": 999, "REV_AT_EPOCH": 382, "BSTAR": 0, "MEAN_MOTION_DOT": -6e-07, "MEAN_MOTION_DDOT": 0}, "tle": {"line1": "1 64202U 25116A   25331.65075464 -.00000060  00000+0  00000+0 0  9995", "line2": "2 64202  55.0944  39.2516 0004863 304.4210  50.9436  2.00559190  3825"}}, "geometry": {"type": "Point", "coordinates": [158.13442561424267, 51.41100385098776]}}]}